STARLINK-4372           
1 53233U 22084AW  25243.42212544  .00000419  00000+0  37168-4 0  9994
2 53233  97.6267 303.9296 0000867  98.2050 261.9273 15.01260120170772
STARLINK-4368           
1 53234U 22084AX  25243.42373047 -.00003650  00000+0 -27960-3 0  9991
2 53234  97.6260 303.9243 0000987  93.4065 266.7272 15.01277904171786
STARLINK-4056           
1 53242U 22086A   25243.52839393 -.00000060  00000+0  14331-4 0  9994
2 53242  53.2203 332.7780 0001469  94.2318 265.8842 15.08847467172601
STARLINK-4047           
1 53243U 22086B   25243.50031266  .00003447  00000+0  23460-3 0  9999
2 53243  53.2188 337.6082 0001062  92.9381 267.1733 15.08831391172554
STARLINK-4125           
1 53244U 22086C   25243.52610666 -.00000432  00000+0 -90288-5 0  9996
2 53244  53.2178 337.8772 0001381  82.8176 277.2973 15.08848409172530
STARLINK-4131           
1 53246U 22086E   25243.58865602  .00001299  00000+0  99701-4 0  9994
2 53246  53.2184 337.5221 0001356  84.3613 275.7533 15.08846154171438
STARLINK-4061           
1 53247U 22086F   25243.54313762  .00000490  00000+0  48850-4 0  9997
2 53247  53.2187 332.9063 0001252  83.0834 277.0301 15.08844484172603
STARLINK-4135           
1 53248U 22086G   25243.53209691 -.00000153  00000+0  84774-5 0  9995
2 53248  53.2200 332.8763 0001401  95.9354 264.1798 15.08837698172607
STARLINK-4128           
1 53249U 22086H   25243.46909421  .00000420  00000+0  44448-4 0  9995
2 53249  53.2194 328.0687 0001406  92.3236 267.7917 15.08849420172368
STARLINK-4059           
1 53250U 22086J   25243.53803863  .00001658  00000+0  12217-3 0  9990
2 53250  53.2179 327.7494 0001300  96.5892 263.5249 15.08855449172373
STARLINK-4129           
1 53251U 22086K   25243.52702660  .00000410  00000+0  43830-4 0  9994
2 53251  53.2189 327.7947 0001334  88.8390 271.2755 15.08837354172353
STARLINK-4132           
1 53252U 22086L   25243.53070015  .00000270  00000+0  35023-4 0  9997
2 53252  53.2187 327.7311 0001236  95.8086 264.3047 15.08834713172373
STARLINK-4133           
1 53253U 22086M   25243.52334308 -.00000523  00000+0 -14803-4 0  9991
2 53253  53.2185 327.8128 0001287  88.4135 271.7005 15.08841222172355
STARLINK-4134           
1 53254U 22086N   25243.53166421  .00000067  00000+0  22282-4 0  9993
2 53254  53.2181 327.7864 0001301  91.9974 268.1167 15.08835668172373
STARLINK-4142           
1 53255U 22086P   25243.51598628 -.00000014  00000+0  17232-4 0  9992
2 53255  53.2194 327.8446 0001362  90.6513 269.4635 15.08836516172352
STARLINK-4147           
1 53256U 22086Q   25243.51966045 -.00000306  00000+0 -11095-5 0  9992
2 53256  53.2188 327.8292 0001382  96.7367 263.3783 15.08840456172356
