[{"OBJECT_NAME":"STARLINK-4372","OBJECT_ID":"2022-084AW","EPOCH":"2025-08-31T10:07:51.638016","MEAN_MOTION":15.0126012,"ECCENTRICITY":8.67e-5,"INCLINATION":97.6267,"RA_OF_ASC_NODE":303.9296,"ARG_OF_PERICENTER":98.205,"MEAN_ANOMALY":261.9273,"EPHEMERIS_TYPE":0,"CLASSIFICATION_TYPE":"U","NORAD_CAT_ID":53233,"ELEMENT_SET_NO":999,"REV_AT_EPOCH":17077,"BSTAR":3.7168102e-5,"MEAN_MOTION_DOT":4.19e-6,"MEAN_MOTION_DDOT":0},{"OBJECT_NAME":"STARLINK-4368","OBJECT_ID":"2022-084AX","EPOCH":"2025-08-31T10:10:10.312608","MEAN_MOTION":15.01277904,"ECCENTRICITY":9.874e-5,"INCLINATION":97.626,"RA_OF_ASC_NODE":303.9243,"ARG_OF_PERICENTER":93.4065,"MEAN_ANOMALY":266.7272,"EPHEMERIS_TYPE":0,"CLASSIFICATION_TYPE":"U","NORAD_CAT_ID":53234,"ELEMENT_SET_NO":999,"REV_AT_EPOCH":17178,"BSTAR":-0.00027959676,"MEAN_MOTION_DOT":-3.65e-5,"MEAN_MOTION_DDOT":0},{"OBJECT_NAME":"STARLINK-4056","OBJECT_ID":"2022-086A","EPOCH":"2025-08-31T12:40:53.235552","MEAN_MOTION":15.08847467,"ECCENTRICITY":0.0001469,"INCLINATION":53.2203,"RA_OF_ASC_NODE":332.778,"ARG_OF_PERICENTER":94.2318,"MEAN_ANOMALY":265.8842,"EPHEMERIS_TYPE":0,"CLASSIFICATION_TYPE":"U","NORAD_CAT_ID":53242,"ELEMENT_SET_NO":999,"REV_AT_EPOCH":17260,"BSTAR":1.4330706e-5,"MEAN_MOTION_DOT":-6.0e-7,"MEAN_MOTION_DDOT":0},{"OBJECT_NAME":"STARLINK-4047","OBJECT_ID":"2022-086B","EPOCH":"2025-08-31T12:00:27.013824","MEAN_MOTION":15.08831391,"ECCENTRICITY":0.00010626,"INCLINATION":53.2188,"RA_OF_ASC_NODE":337.6082,"ARG_OF_PERICENTER":92.9381,"MEAN_ANOMALY":267.1733,"EPHEMERIS_TYPE":0,"CLASSIFICATION_TYPE":"U","NORAD_CAT_ID":53243,"ELEMENT_SET_NO":999,"REV_AT_EPOCH":17255,"BSTAR":0.00023459941,"MEAN_MOTION_DOT":3.447e-5,"MEAN_MOTION_DDOT":0},{"OBJECT_NAME":"STARLINK-4125","OBJECT_ID":"2022-086C","EPOCH":"2025-08-31T12:37:35.615424","MEAN_MOTION":15.08848409,"ECCENTRICITY":0.00013813,"INCLINATION":53.2178,"RA_OF_ASC_NODE":337.8772,"ARG_OF_PERICENTER":82.8176,"MEAN_ANOMALY":277.2973,"EPHEMERIS_TYPE":0,"CLASSIFICATION_TYPE":"U","NORAD_CAT_ID":53244,"ELEMENT_SET_NO":999,"REV_AT_EPOCH":17253,"BSTAR":-9.028843e-6,"MEAN_MOTION_DOT":-4.32e-6,"MEAN_MOTION_DDOT":0},{"OBJECT_NAME":"STARLINK-4131","OBJECT_ID":"2022-086E","EPOCH":"2025-08-31T14:07:39.880128","MEAN_MOTION":15.08846154,"ECCENTRICITY":0.00013567,"INCLINATION":53.2184,"RA_OF_ASC_NODE":337.5221,"ARG_OF_PERICENTER":84.3613,"MEAN_ANOMALY":275.7533,"EPHEMERIS_TYPE":0,"CLASSIFICATION_TYPE":"U","NORAD_CAT_ID":53246,"ELEMENT_SET_NO":999,"REV_AT_EPOCH":17143,"BSTAR":9.9701413e-5,"MEAN_MOTION_DOT":1.299e-5,"MEAN_MOTION_DDOT":0},{"OBJECT_NAME":"STARLINK-4061","OBJECT_ID":"2022-086F","EPOCH":"2025-08-31T13:02:07.090368","MEAN_MOTION":15.08844484,"ECCENTRICITY":0.00012523,"INCLINATION":53.2187,"RA_OF_ASC_NODE":332.9063,"ARG_OF_PERICENTER":83.0834,"MEAN_ANOMALY":277.0301,"EPHEMERIS_TYPE":0,"CLASSIFICATION_TYPE":"U","NORAD_CAT_ID":53247,"ELEMENT_SET_NO":999,"REV_AT_EPOCH":17260,"BSTAR":4.8850414e-5,"MEAN_MOTION_DOT":4.9e-6,"MEAN_MOTION_DDOT":0},{"OBJECT_NAME":"STARLINK-4135","OBJECT_ID":"2022-086G","EPOCH":"2025-08-31T12:46:13.173024","MEAN_MOTION":15.08837698,"ECCENTRICITY":0.00014012,"INCLINATION":53.22,"RA_OF_ASC_NODE":332.8763,"ARG_OF_PERICENTER":95.9354,"MEAN_ANOMALY":264.1798,"EPHEMERIS_TYPE":0,"CLASSIFICATION_TYPE":"U","NORAD_CAT_ID":53248,"ELEMENT_SET_NO":999,"REV_AT_EPOCH":17260,"BSTAR":8.477441e-6,"MEAN_MOTION_DOT":-1.53e-6,"MEAN_MOTION_DDOT":0},{"OBJECT_NAME":"STARLINK-4128","OBJECT_ID":"2022-086H","EPOCH":"2025-08-31T11:15:29.739744","MEAN_MOTION":15.0884942,"ECCENTRICITY":0.00014067,"INCLINATION":53.2194,"RA_OF_ASC_NODE":328.0687,"ARG_OF_PERICENTER":92.3236,"MEAN_ANOMALY":267.7917,"EPHEMERIS_TYPE":0,"CLASSIFICATION_TYPE":"U","NORAD_CAT_ID":53249,"ELEMENT_SET_NO":999,"REV_AT_EPOCH":17236,"BSTAR":4.4448497e-5,"MEAN_MOTION_DOT":4.2e-6,"MEAN_MOTION_DDOT":0},{"OBJECT_NAME":"STARLINK-4059","OBJECT_ID":"2022-086J","EPOCH":"2025-08-31T12:54:46.537632","MEAN_MOTION":15.08855449,"ECCENTRICITY":0.00013006,"INCLINATION":53.2179,"RA_OF_ASC_NODE":327.7494,"ARG_OF_PERICENTER":96.5892,"MEAN_ANOMALY":263.5249,"EPHEMERIS_TYPE":0,"CLASSIFICATION_TYPE":"U","NORAD_CAT_ID":53250,"ELEMENT_SET_NO":999,"REV_AT_EPOCH":17237,"BSTAR":0.0001221706,"MEAN_MOTION_DOT":1.658e-5,"MEAN_MOTION_DDOT":0},{"OBJECT_NAME":"STARLINK-4129","OBJECT_ID":"2022-086K","EPOCH":"2025-08-31T12:38:55.098240","MEAN_MOTION":15.08837354,"ECCENTRICITY":0.00013343,"INCLINATION":53.2189,"RA_OF_ASC_NODE":327.7947,"ARG_OF_PERICENTER":88.839,"MEAN_ANOMALY":271.2755,"EPHEMERIS_TYPE":0,"CLASSIFICATION_TYPE":"U","NORAD_CAT_ID":53251,"ELEMENT_SET_NO":999,"REV_AT_EPOCH":17235,"BSTAR":4.3830078e-5,"MEAN_MOTION_DOT":4.1e-6,"MEAN_MOTION_DDOT":0},{"OBJECT_NAME":"STARLINK-4132","OBJECT_ID":"2022-086L","EPOCH":"2025-08-31T12:44:12.492960","MEAN_MOTION":15.08834713,"ECCENTRICITY":0.00012369,"INCLINATION":53.2187,"RA_OF_ASC_NODE":327.7311,"ARG_OF_PERICENTER":95.8086,"MEAN_ANOMALY":264.3047,"EPHEMERIS_TYPE":0,"CLASSIFICATION_TYPE":"U","NORAD_CAT_ID":53252,"ELEMENT_SET_NO":999,"REV_AT_EPOCH":17237,"BSTAR":3.5022816e-5,"MEAN_MOTION_DOT":2.7e-6,"MEAN_MOTION_DDOT":0},{"OBJECT_NAME":"STARLINK-4133","OBJECT_ID":"2022-086M","EPOCH":"2025-08-31T12:33:36.842112","MEAN_MOTION":15.08841222,"ECCENTRICITY":0.00012874,"INCLINATION":53.2185,"RA_OF_ASC_NODE":327.8128,"ARG_OF_PERICENTER":88.4135,"MEAN_ANOMALY":271.7005,"EPHEMERIS_TYPE":0,"CLASSIFICATION_TYPE":"U","NORAD_CAT_ID":53253,"ELEMENT_SET_NO":999,"REV_AT_EPOCH":17235,"BSTAR":-1.4803116e-5,"MEAN_MOTION_DOT":-5.23e-6,"MEAN_MOTION_DDOT":0},{"OBJECT_NAME":"STARLINK-4134","OBJECT_ID":"2022-086N","EPOCH":"2025-08-31T12:45:35.787744","MEAN_MOTION":15.08835668,"ECCENTRICITY":0.00013019,"INCLINATION":53.2181,"RA_OF_ASC_NODE":327.7864,"ARG_OF_PERICENTER":91.9974,"MEAN_ANOMALY":268.1167,"EPHEMERIS_TYPE":0,"CLASSIFICATION_TYPE":"U","NORAD_CAT_ID":53254,"ELEMENT_SET_NO":999,"REV_AT_EPOCH":17237,"BSTAR":2.2282151e-5,"MEAN_MOTION_DOT":6.7e-7,"MEAN_MOTION_DDOT":0},{"OBJECT_NAME":"STARLINK-4142","OBJECT_ID":"2022-086P","EPOCH":"2025-08-31T12:23:01.214592","MEAN_MOTION":15.08836516,"ECCENTRICITY":0.00013629,"INCLINATION":53.2194,"RA_OF_ASC_NODE":327.8446,"ARG_OF_PERICENTER":90.6513,"MEAN_ANOMALY":269.4635,"EPHEMERIS_TYPE":0,"CLASSIFICATION_TYPE":"U","NORAD_CAT_ID":53255,"ELEMENT_SET_NO":999,"REV_AT_EPOCH":17235,"BSTAR":1.723176e-5,"MEAN_MOTION_DOT":-1.4e-7,"MEAN_MOTION_DDOT":0},{"OBJECT_NAME":"STARLINK-4147","OBJECT_ID":"2022-086Q","EPOCH":"2025-08-31T12:28:18.662880","MEAN_MOTION":15.08840456,"ECCENTRICITY":0.00013827,"INCLINATION":53.2188,"RA_OF_ASC_NODE":327.8292,"ARG_OF_PERICENTER":96.7367,"MEAN_ANOMALY":263.3783,"EPHEMERIS_TYPE":0,"CLASSIFICATION_TYPE":"U","NORAD_CAT_ID":53256,"ELEMENT_SET_NO":999,"REV_AT_EPOCH":17235,"BSTAR":-1.109505e-6,"MEAN_MOTION_DOT":-3.06e-6,"MEAN_MOTION_DDOT":0}]
